[{"OBJECT_NAME":"HAWK-7C","OBJECT_ID":"2023-054Y","EPOCH":"2026-03-09T16:32:02.440032","MEAN_MOTION":15.26207266,"ECCENTRICITY":0.00036507,"INCLINATION":97.2829,"RA_OF_ASC_NODE":317.5849,"ARG_OF_PERICENTER":52.209,"MEAN_ANOMALY":307.9479,"EPHEMERIS_TYPE":0,"CLASSIFICATION_TYPE":"U","NORAD_CAT_ID":56200,"ELEMENT_SET_NO":999,"REV_AT_EPOCH":16184,"BSTAR":0.0003098019,"MEAN_MOTION_DOT":7.947e-5,"MEAN_MOTION_DDOT":0},{"OBJECT_NAME":"STARLINK-30447","OBJECT_ID":"2023-144L","EPOCH":"2026-03-09T13:26:12.748992","MEAN_MOTION":15.26742466,"ECCENTRICITY":0.0001542,"INCLINATION":42.9968,"RA_OF_ASC_NODE":260.1413,"ARG_OF_PERICENTER":274.2299,"MEAN_ANOMALY":85.8376,"EPHEMERIS_TYPE":0,"CLASSIFICATION_TYPE":"U","NORAD_CAT_ID":57874,"ELEMENT_SET_NO":999,"REV_AT_EPOCH":13791,"BSTAR":6.498104e-6,"MEAN_MOTION_DOT":-8.5e-7,"MEAN_MOTION_DDOT":0}]
